start=new Date('2022-05-04T00:00:00.000Z').valueOf();
sats=[{"BSTAR":"0.00011876000000","OBJECT_ID":"2020-035AX","TLE_LINE1":"1 45702U 20035AX  22123.63247545  .00001487  00000-0  11876-3 0  9990","PERIOD":"95.593","MEAN_MOTION":"15.06385967","MEAN_ANOMALY":"303.4268","REF_FRAME":"TEME","EPOCH":"2022-05-03T15:10:45.878880","FILE":"3427573","INCLINATION":"53.0547","OBJECT_TYPE":"PAYLOAD","DECAY_DATE":null,"LAUNCH_DATE":"2020-06-04","PERIAPSIS":"546.015","GP_ID":"202632889","NORAD_CAT_ID":"45702","OBJECT_NAME":"STARLINK-1405","ARG_OF_PERICENTER":"56.6892","TIME_SYSTEM":"UTC","RCS_SIZE":"LARGE","SITE":"AFETR","EPHEMERIS_TYPE":"0","ECCENTRICITY":"0.00017930","MEAN_MOTION_DDOT":"0.0000000000000","COUNTRY_CODE":"US","CLASSIFICATION_TYPE":"U","ELEMENT_SET_NO":"999","MEAN_MOTION_DOT":"0.00001487","SEMIMAJOR_AXIS":"6925.392","TLE_LINE2":"2 45702  53.0547 228.6496 0001793  56.6892 303.4268 15.06385967107225","CENTER_NAME":"EARTH","RA_OF_ASC_NODE":"228.6496","MEAN_ELEMENT_THEORY":"SGP4","APOAPSIS":"548.498","REV_AT_EPOCH":"10722"},{"REF_FRAME":"TEME","EPOCH":"2022-05-03T18:16:31.481472","MEAN_ANOMALY":"300.7861","DECAY_DATE":null,"OBJECT_TYPE":"PAYLOAD","FILE":"3427573","INCLINATION":"53.0539","GP_ID":"202633140","OBJECT_NAME":"STARLINK-1407","NORAD_CAT_ID":"45703","LAUNCH_DATE":"2020-06-04","PERIAPSIS":"546.127","BSTAR":"0.00077059000000","OBJECT_ID":"2020-035AY","TLE_LINE1":"1 45703U 20035AY  22123.76147548  .00011219  00000-0  77059-3 0  9996","MEAN_MOTION":"15.06412526","PERIOD":"95.591","ELEMENT_SET_NO":"999","MEAN_MOTION_DOT":"0.00011219","SEMIMAJOR_AXIS":"6925.310","MEAN_ELEMENT_THEORY":"SGP4","APOAPSIS":"548.223","RA_OF_ASC_NODE":"228.0837","CENTER_NAME":"EARTH","TLE_LINE2":"2 45703  53.0539 228.0837 0001513  59.3277 300.7861 15.06412526107240","REV_AT_EPOCH":"10724","RCS_SIZE":"LARGE","TIME_SYSTEM":"UTC","ARG_OF_PERICENTER":"59.3277","ECCENTRICITY":"0.00015130","SITE":"AFETR","EPHEMERIS_TYPE":"0","CLASSIFICATION_TYPE":"U","COUNTRY_CODE":"US","MEAN_MOTION_DDOT":"0.0000000000000"},{"ECCENTRICITY":"0.00015260","SITE":"AFETR","EPHEMERIS_TYPE":"0","CLASSIFICATION_TYPE":"U","MEAN_MOTION_DDOT":"0.0000000000000","COUNTRY_CODE":"US","RCS_SIZE":"LARGE","TIME_SYSTEM":"UTC","ARG_OF_PERICENTER":"64.7887","APOAPSIS":"548.260","MEAN_ELEMENT_THEORY":"SGP4","RA_OF_ASC_NODE":"257.9689","TLE_LINE2":"2 45704  53.0544 257.9689 0001526  64.7887 295.3260 15.06403312106833","CENTER_NAME":"EARTH","REV_AT_EPOCH":"10683","ELEMENT_SET_NO":"999","MEAN_MOTION_DOT":"0.00004147","SEMIMAJOR_AXIS":"6925.338","MEAN_MOTION":"15.06403312","PERIOD":"95.592","BSTAR":"0.00029709000000","OBJECT_ID":"2020-035AZ","TLE_LINE1":"1 45704U 20035AZ  22123.78724579  .00004147  00000-0  29709-3 0  9995","DECAY_DATE":null,"OBJECT_TYPE":"PAYLOAD","FILE":"3427573","INCLINATION":"53.0544","OBJECT_NAME":"STARLINK-1409","GP_ID":"202631888","NORAD_CAT_ID":"45704","PERIAPSIS":"546.147","LAUNCH_DATE":"2020-06-04","REF_FRAME":"TEME","EPOCH":"2022-05-03T18:53:38.036256","MEAN_ANOMALY":"295.3260"},{"CENTER_NAME":"EARTH","TLE_LINE2":"2 45705  53.0545 259.9210 0001622  59.7659 300.3490 15.06389637106751","RA_OF_ASC_NODE":"259.9210","APOAPSIS":"548.369","MEAN_ELEMENT_THEORY":"SGP4","REV_AT_EPOCH":"10675","MEAN_MOTION_DOT":"0.00001522","ELEMENT_SET_NO":"999","SEMIMAJOR_AXIS":"6925.380","SITE":"AFETR","EPHEMERIS_TYPE":"0","ECCENTRICITY":"0.00016220","COUNTRY_CODE":"US","MEAN_MOTION_DDOT":"0.0000000000000","CLASSIFICATION_TYPE":"U","ARG_OF_PERICENTER":"59.7659","TIME_SYSTEM":"UTC","RCS_SIZE":"LARGE","INCLINATION":"53.0545","FILE":"3427159","OBJECT_TYPE":"PAYLOAD","DECAY_DATE":null,"LAUNCH_DATE":"2020-06-04","PERIAPSIS":"546.122","OBJECT_NAME":"STARLINK-1410","GP_ID":"202598717","NORAD_CAT_ID":"45705","EPOCH":"2022-05-03T08:23:22.651872","REF_FRAME":"TEME","MEAN_ANOMALY":"300.3490","PERIOD":"95.593","MEAN_MOTION":"15.06389637","OBJECT_ID":"2020-035BA","BSTAR":"0.00012106000000","TLE_LINE1":"1 45705U 20035BA  22123.34956773  .00001522  00000-0  12106-3 0  9998"},{"ELEMENT_SET_NO":"999","MEAN_MOTION_DOT":"0.00003008","SEMIMAJOR_AXIS":"6925.350","RA_OF_ASC_NODE":"228.4661","CENTER_NAME":"EARTH","TLE_LINE2":"2 45706  53.0549 228.4661 0001528  52.7870 307.3258 15.06399400107221","MEAN_ELEMENT_THEORY":"SGP4","APOAPSIS":"548.274","REV_AT_EPOCH":"10722","ARG_OF_PERICENTER":"52.7870","RCS_SIZE":"LARGE","TIME_SYSTEM":"UTC","SITE":"AFETR","EPHEMERIS_TYPE":"0","ECCENTRICITY":"0.00015280","COUNTRY_CODE":"US","MEAN_MOTION_DDOT":"0.0000000000000","CLASSIFICATION_TYPE":"U","EPOCH":"2022-05-03T16:09:07.359840","REF_FRAME":"TEME","MEAN_ANOMALY":"307.3258","OBJECT_TYPE":"PAYLOAD","INCLINATION":"53.0549","FILE":"3427573","DECAY_DATE":null,"GP_ID":"202632390","OBJECT_NAME":"STARLINK-1411","NORAD_CAT_ID":"45706","LAUNCH_DATE":"2020-06-04","PERIAPSIS":"546.157","OBJECT_ID":"2020-035BB","BSTAR":"0.00022078000000","TLE_LINE1":"1 45706U 20035BB  22123.67300185  .00003008  00000-0  22078-3 0  9995","PERIOD":"95.592","MEAN_MOTION":"15.06399400"},{"PERIOD":"95.592","MEAN_MOTION":"15.06395843","TLE_LINE1":"1 45707U 20035BC  22123.47027970  .00002057  00000-0  15694-3 0  9991","OBJECT_ID":"2020-035BC","BSTAR":"0.00015694000000","NORAD_CAT_ID":"45707","GP_ID":"202608591","OBJECT_NAME":"STARLINK-1412","LAUNCH_DATE":"2020-06-04","PERIAPSIS":"546.072","OBJECT_TYPE":"PAYLOAD","FILE":"3427400","INCLINATION":"53.0556","DECAY_DATE":null,"EPOCH":"2022-05-03T11:17:12.166080","REF_FRAME":"TEME","MEAN_ANOMALY":"296.5500","COUNTRY_CODE":"US","MEAN_MOTION_DDOT":"0.0000000000000","CLASSIFICATION_TYPE":"U","SITE":"AFETR","EPHEMERIS_TYPE":"0","ECCENTRICITY":"0.00016670","ARG_OF_PERICENTER":"63.5660","RCS_SIZE":"LARGE","TIME_SYSTEM":"UTC","REV_AT_EPOCH":"10679","RA_OF_ASC_NODE":"229.3877","CENTER_NAME":"EARTH","TLE_LINE2":"2 45707  53.0556 229.3877 0001667  63.5660 296.5500 15.06395843106797","APOAPSIS":"548.381","MEAN_ELEMENT_THEORY":"SGP4","SEMIMAJOR_AXIS":"6925.361","ELEMENT_SET_NO":"999","MEAN_MOTION_DOT":"0.00002057"},{"MEAN_MOTION":"15.06388815","PERIOD":"95.593","BSTAR":"0.00013853000000","OBJECT_ID":"2020-035BD","TLE_LINE1":"1 45708U 20035BD  22123.77622087  .00001782  00000-0  13853-3 0  9994","DECAY_DATE":null,"OBJECT_TYPE":"PAYLOAD","INCLINATION":"53.0541","FILE":"3427573","OBJECT_NAME":"STARLINK-1418","GP_ID":"202631389","NORAD_CAT_ID":"45708","LAUNCH_DATE":"2020-06-04","PERIAPSIS":"546.129","REF_FRAME":"TEME","EPOCH":"2022-05-03T18:37:45.483168","MEAN_ANOMALY":"294.2871","ECCENTRICITY":"0.00016160","SITE":"AFETR","EPHEMERIS_TYPE":"0","CLASSIFICATION_TYPE":"U","COUNTRY_CODE":"US","MEAN_MOTION_DDOT":"0.0000000000000","RCS_SIZE":"LARGE","TIME_SYSTEM":"UTC","ARG_OF_PERICENTER":"65.8287","APOAPSIS":"548.367","MEAN_ELEMENT_THEORY":"SGP4","RA_OF_ASC_NODE":"228.0001","CENTER_NAME":"EARTH","TLE_LINE2":"2 45708  53.0541 228.0001 0001616  65.8287 294.2871 15.06388815107250","REV_AT_EPOCH":"10725","ELEMENT_SET_NO":"999","MEAN_MOTION_DOT":"0.00001782","SEMIMAJOR_AXIS":"6925.383"},{"REV_AT_EPOCH":"10720","CENTER_NAME":"EARTH","TLE_LINE2":"2 45709  53.0562 228.1501 0001670  56.3375 303.7773 15.06405426107203","RA_OF_ASC_NODE":"228.1501","APOAPSIS":"548.353","MEAN_ELEMENT_THEORY":"SGP4","SEMIMAJOR_AXIS":"6925.332","MEAN_MOTION_DOT":"0.00003980","ELEMENT_SET_NO":"999","MEAN_MOTION_DDOT":"0.0000000000000","COUNTRY_CODE":"US","CLASSIFICATION_TYPE":"U","SITE":"AFETR","EPHEMERIS_TYPE":"0","ECCENTRICITY":"0.00016700","ARG_OF_PERICENTER":"56.3375","TIME_SYSTEM":"UTC","RCS_SIZE":"LARGE","LAUNCH_DATE":"2020-06-04","PERIAPSIS":"546.040","GP_ID":"202632136","NORAD_CAT_ID":"45709","OBJECT_NAME":"STARLINK-1421","FILE":"3427573","INCLINATION":"53.0562","OBJECT_TYPE":"PAYLOAD","DECAY_DATE":null,"EPOCH":"2022-05-03T17:55:16.616640","REF_FRAME":"TEME","MEAN_ANOMALY":"303.7773","PERIOD":"95.592","MEAN_MOTION":"15.06405426","TLE_LINE1":"1 45709U 20035BE  22123.74672010  .00003980  00000-0  28589-3 0  9997","OBJECT_ID":"2020-035BE","BSTAR":"0.00028589000000"},{"EPOCH":"2022-05-03T16:14:26.619072","REF_FRAME":"TEME","MEAN_ANOMALY":"315.7501","DECAY_DATE":null,"INCLINATION":"53.0556","FILE":"3427573","OBJECT_TYPE":"PAYLOAD","PERIAPSIS":"545.971","LAUNCH_DATE":"2020-06-04","GP_ID":"202632890","NORAD_CAT_ID":"45710","OBJECT_NAME":"STARLINK-1423","OBJECT_ID":"2020-035BF","BSTAR":"0.00028901000000","TLE_LINE1":"1 45710U 20035BF  22123.67669698  .00004025  00000-0  28901-3 0  9998","MEAN_MOTION":"15.06395815","PERIOD":"95.592","ELEMENT_SET_NO":"999","MEAN_MOTION_DOT":"0.00004025","SEMIMAJOR_AXIS":"6925.361","APOAPSIS":"548.482","MEAN_ELEMENT_THEORY":"SGP4","CENTER_NAME":"EARTH","TLE_LINE2":"2 45710  53.0556 228.4564 0001813  44.3634 315.7501 15.06395815107239","RA_OF_ASC_NODE":"228.4564","REV_AT_EPOCH":"10723","TIME_SYSTEM":"UTC","RCS_SIZE":"LARGE","ARG_OF_PERICENTER":"44.3634","ECCENTRICITY":"0.00018130","EPHEMERIS_TYPE":"0","SITE":"AFETR","CLASSIFICATION_TYPE":"U","COUNTRY_CODE":"US","MEAN_MOTION_DDOT":"0.0000000000000"},{"BSTAR":"0.00008260100000","OBJECT_ID":"2020-035BG","TLE_LINE1":"1 45711U 20035BG  22123.65825858  .00000949  00000-0  82601-4 0  9998","PERIOD":"95.593","MEAN_MOTION":"15.06392993","EPOCH":"2022-05-03T15:47:53.541312","REF_FRAME":"TEME","MEAN_ANOMALY":"309.9394","FILE":"3427573","INCLINATION":"53.0543","OBJECT_TYPE":"PAYLOAD","DECAY_DATE":null,"LAUNCH_DATE":"2020-06-04","PERIAPSIS":"545.989","GP_ID":"202633141","OBJECT_NAME":"STARLINK-1433","NORAD_CAT_ID":"45711","ARG_OF_PERICENTER":"50.1753","TIME_SYSTEM":"UTC","RCS_SIZE":"LARGE","EPHEMERIS_TYPE":"0","SITE":"AFETR","ECCENTRICITY":"0.00017990","COUNTRY_CODE":"US","MEAN_MOTION_DDOT":"0.0000000000000","CLASSIFICATION_TYPE":"U","ELEMENT_SET_NO":"999","MEAN_MOTION_DOT":"0.00000949","SEMIMAJOR_AXIS":"6925.370","TLE_LINE2":"2 45711  53.0543 228.5377 0001799  50.1753 309.9394 15.06392993107227","CENTER_NAME":"EARTH","RA_OF_ASC_NODE":"228.5377","MEAN_ELEMENT_THEORY":"SGP4","APOAPSIS":"548.481","REV_AT_EPOCH":"10722"}];
